{
  "type": "Feature",
  "properties": {
    "name": "圣灯社区高精度展示范围（初版）",
    "boundaryKind": "product-focus-area",
    "administrativeBoundary": false,
    "coordinateSystem": "WGS84",
    "purpose": "限定圣灯社区高精度艺术模型的初版加载范围",
    "draftedBy": "用户圈定初版范围",
    "draftedAt": "2026-08-02T13:08:40+08:00",
    "version": 1,
    "status": "initial-working-scope"
  },
  "geometry": {
    "type": "Polygon",
    "coordinates": [
      [
        [104.4162562299503, 31.649646683730545],
        [104.41940071800288, 31.6490157529815],
        [104.41859606786149, 31.64580701945781],
        [104.41547275481263, 31.64606840505384],
        [104.4162562299503, 31.649646683730545]
      ]
    ]
  }
}
